NORAD_CAT_ID,OBJECT_NAME,OBJECT_TYPE,EPOCH,MEAN_MOTION,ECCENTRICITY,INCLINATION,RA_OF_ASC_NODE,ARG_OF_PERICENTER,MEAN_ANOMALY,BSTAR,MEAN_MOTION_DOT,MEAN_MOTION_DDOT,TLE_LINE0,TLE_LINE1,TLE_LINE2,SEMIMAJOR_AXIS,PERIOD,APOGEE,PERIGEE,DECAYED
53286.0,STARLINK-4165,PAYLOAD,2022-08-30 06:00:00,15.73180491,0.0002598,53.2171,221.6147,25.6093,300.6785,0.0001679,0.0002299,0.0,0 STARLINK-4165,1 53286U 22086AW  22242.25001157  .00022990  00000-0  16790-3 0  9993,2 53286  53.2171 221.6147 0002598  25.6093 300.6785 15.73180491  6405,6727.951,91.534,351.564,348.0680000000001,0.0
53286.0,STARLINK-4165,PAYLOAD,2022-08-30 14:00:01,15.73240228,0.0002494,53.2168,219.9646,24.1481,31.0496,-0.00026997,-0.00038409,0.0,0 STARLINK-4165,1 53286U 22086AW  22242.58334491 -.00038409  00000-0 -26997-3 0  9993,2 53286  53.2168 219.9646 0002494  24.1481  31.0496 15.73240228  1308,6727.78,91.531,351.3230000000001,347.968,0.0
53286.0,STARLINK-4165,PAYLOAD,2022-08-30 22:00:00,15.73187065,0.0002217,53.2172,218.3138,24.8856,119.2764,8.318799999999999e-05,0.00011063,0.0,0 STARLINK-4165,1 53286U 22086AW  22242.91667824  .00011063  00000-0  83188-4 0  9990,2 53286  53.2172 218.3138 0002217  24.8856 119.2764 15.73187065  1304,6727.932,91.534,351.289,348.305,0.0
53286.0,STARLINK-4165,PAYLOAD,2022-08-31 12:00:00,15.73246575,0.000242,53.2172,215.4292,19.8152,189.9579,-0.0002241,-0.00032021,0.0,0 STARLINK-4165,1 53286U 22086AW  22243.50001157 -.00032021  00000-0 -22410-3 0  9996,2 53286  53.2172 215.4292 0002420  19.8152 189.9579 15.73246575  6600,6727.762,91.53,351.256,347.999,0.0
53286.0,STARLINK-4165,PAYLOAD,2022-08-31 14:00:01,15.73270437,0.0002358,53.2175,215.0162,19.5281,302.4806,-0.00068434,-0.0009587999999999,0.0,0 STARLINK-4165,1 53286U 22086AW  22243.58334491 -.00095880  00000-0 -68434-3 0  9992,2 53286  53.2175 215.0162 0002358  19.5281 302.4806 15.73270437  1306,6727.694,91.529,351.146,347.973,0.0
53286.0,STARLINK-4165,PAYLOAD,2022-08-31 22:00:00,15.73216796,0.0002274,53.2176,213.3657,23.321,27.6542,-0.00035481,-0.00050163,0.0,0 STARLINK-4165,1 53286U 22086AW  22243.91667824 -.00050163  00000-0 -35481-3 0  9999,2 53286  53.2176 213.3657 0002274  23.3210  27.6542 15.73216796  1300,6727.847,91.532,351.242,348.182,0.0
53286.0,STARLINK-4165,PAYLOAD,2022-09-01 04:00:01,15.73175228,0.000247,53.2172,212.1303,24.3194,3.4263,-0.00023502,-0.00033444,0.0,0 STARLINK-4165,1 53286U 22086AW  22244.16668981 -.00033444  00000-0 -23502-3 0  9996,2 53286  53.2172 212.1303 0002470  24.3194   3.4263 15.73175228  6717,6727.965999999999,91.535,351.49300000000005,348.1690000000001,0.0
53286.0,STARLINK-4165,PAYLOAD,2022-09-01 14:00:01,15.73197022,0.0002427,53.2166,210.0679,26.6787,202.1783,-2.162300000000001e-05,-3.655e-05,0.0,0 STARLINK-4165,1 53286U 22086AW  22244.58335648 -.00003655  00000-0 -21623-4 0  9997,2 53286  53.2166 210.0679 0002427  26.6787 202.1783 15.73197022  6775,6727.904,91.533,351.402,348.136,0.0
53286.0,STARLINK-4165,PAYLOAD,2022-09-01 22:00:00,15.73206797,0.0002266999999999,53.2169,208.4176,30.4119,287.2989,0.00038117,0.00053233,0.0,0 STARLINK-4165,1 53286U 22086AW  22244.91667824  .00053233  00000-0  38117-3 0  9998,2 53286  53.2169 208.4176 0002267  30.4119 287.2989 15.73206797  1301,6727.876,91.533,351.266,348.216,0.0
53286.0,STARLINK-4165,PAYLOAD,2022-09-02 06:00:00,15.73242495,0.0002488,53.2171,206.7704,26.4431,20.2179,-0.00016125,-0.00023235,0.0,0 STARLINK-4165,1 53286U 22086AW  22245.25001157 -.00023235  00000-0 -16125-3 0  9993,2 53286  53.2171 206.7704 0002488  26.4431  20.2179 15.73242495  6888,6727.774,91.531,351.31300000000016,347.965,0.0
53286.0,STARLINK-4165,PAYLOAD,2022-09-02 14:00:01,15.73217515,0.0002320999999999,53.2171,205.1195,23.2961,112.346,-2.9214e-05,-4.723e-05,0.0,0 STARLINK-4165,1 53286U 22086AW  22245.58334491 -.00004723  00000-0 -29214-4 0  9994,2 53286  53.2171 205.1195 0002321  23.2961 112.3460 15.73217515  1307,6727.845,91.532,351.272,348.149,0.0
53286.0,STARLINK-4165,PAYLOAD,2022-09-02 22:00:01,15.73257376,0.0002139,53.217,203.4694,25.3819,199.2607,-0.0003703,-0.00052401,0.0,0 STARLINK-4165,1 53286U 22086AW  22245.91668981 -.00052401  00000-0 -37030-3 0  9995,2 53286  53.2170 203.4694 0002139  25.3819 199.2607 15.73257376  1309,6727.732,91.53,351.036,348.158,0.0
53286.0,STARLINK-4165,PAYLOAD,2022-09-03 06:00:00,15.73187473,0.0002378,53.2165,201.822,20.9053,292.6558,0.00036243,0.00050527,0.0,0 STARLINK-4165,1 53286U 22086AW  22246.25001157  .00050527  00000-0  36243-3 0  9999,2 53286  53.2165 201.8220 0002378  20.9053 292.6558 15.73187473  7035,6727.931,91.534,351.396,348.196,0.0
53286.0,STARLINK-4165,PAYLOAD,2022-09-03 14:00:01,15.73234162,0.000218,53.2161,200.171,22.2764,20.2177,0.00013355,0.00018191,0.0,0 STARLINK-4165,1 53286U 22086AW  22246.58334491  .00018191  00000-0  13355-3 0  9995,2 53286  53.2161 200.1710 0002180  22.2764  20.2177 15.73234162  1306,6727.7980000000025,91.531,351.129,348.196,0.0
53286.0,STARLINK-4165,PAYLOAD,2022-09-03 22:00:00,15.73275709,0.0002133999999999,53.2163,198.521,28.11,103.362,-0.00034096,-0.00048359,0.0,0 STARLINK-4165,1 53286U 22086AW  22246.91667824 -.00048359  00000-0 -34096-3 0  9997,2 53286  53.2163 198.5210 0002134  28.1100 103.3620 15.73275709  1309,6727.679,91.529,350.98,348.1090000000001,0.0
53286.0,STARLINK-4165,PAYLOAD,2022-09-04 06:00:00,15.73257873,0.0002372,53.2164,196.8735,26.6208,193.8515,-4.3187e-05,-6.694e-05,0.0,0 STARLINK-4165,1 53286U 22086AW  22247.25001157 -.00006694  00000-0 -43187-4 0  9994,2 53286  53.2164 196.8735 0002372  26.6208 193.8515 15.73257873  7191,6727.73,91.53,351.191,347.999,0.0
53286.0,STARLINK-4165,PAYLOAD,2022-09-04 14:00:01,15.73247492,0.0002189,53.2164,195.2222,26.6528,282.8855,-0.00052836,-0.00074281,0.0,0 STARLINK-4165,1 53286U 22086AW  22247.58335648 -.00074281  00000-0 -52836-3 0  9992,2 53286  53.2164 195.2222 0002189  26.6528 282.8855 15.73247492  1305,6727.76,91.53,351.097,348.152,0.0
53286.0,STARLINK-4165,PAYLOAD,2022-09-04 16:00:00,15.73209552,0.0002098,53.2163,194.8094,26.3218,35.4034,-0.00010171,-0.00014877,0.0,0 STARLINK-4165,1 53286U 22086AW  22247.66667824 -.00014877  00000-0 -10171-3 0  9996,2 53286  53.2163 194.8094 0002098  26.3218  35.4034 15.73209552  7265,6727.868,91.533,351.144,348.321,0.0
53286.0,STARLINK-4165,PAYLOAD,2022-09-04 20:00:01,15.73210542,0.0002079,53.2163,193.9843,28.8643,257.3275,-0.00023669,-0.00033724,0.0,0 STARLINK-4165,1 53286U 22086AW  22247.83334491 -.00033724  00000-0 -23669-3 0  9994,2 53286  53.2163 193.9843 0002079  28.8643 257.3275 15.73210542  1307,6727.865,91.533,351.129,348.331,0.0
53286.0,STARLINK-4165,PAYLOAD,2022-09-05 14:00:01,15.73210203,0.0002048,53.2157,190.2736,23.648000000000003,192.6582,-0.00044447,-0.0006257,0.0,0 STARLINK-4165,1 53286U 22086AW  22248.58334491 -.00062570  00000-0 -44447-3 0  9995,2 53286  53.2157 190.2736 0002048  23.6480 192.6582 15.73210203  7402,6727.866,91.533,351.1090000000001,348.353,0.0
53286.0,STARLINK-4165,PAYLOAD,2022-09-05 22:00:00,15.73163234,0.0002073,53.216,188.6241,31.7953,273.4238,-0.00025598,-0.00036338,0.0,0 STARLINK-4165,1 53286U 22086AW  22248.91667824 -.00036338  00000-0 -25598-3 0  9990,2 53286  53.2160 188.6241 0002073  31.7953 273.4238 15.73163234  1301,6728.0,91.535,351.26,348.47,0.0
53286.0,STARLINK-4165,PAYLOAD,2022-09-06 12:00:00,15.73121481,0.0002112,53.2162,185.7383,27.0567,343.648,0.00020809,0.00028587,0.0,0 STARLINK-4165,1 53286U 22086AW  22249.50001157  .00028587  00000-0  20809-3 0  9992,2 53286  53.2162 185.7383 0002112  27.0567 343.6480 15.73121481  7540,6728.119000000002,91.538,351.405,348.56300000000016,0.0
53286.0,STARLINK-4165,PAYLOAD,2022-09-06 14:00:01,15.73110395,0.000204,53.2164,185.3255,27.4979,95.4166,0.00043513,0.00060657,0.0,0 STARLINK-4165,1 53286U 22086AW  22249.58334491  .00060657  00000-0  43513-3 0  9991,2 53286  53.2164 185.3255 0002040  27.4979  95.4166 15.73110395  1300,6728.151,91.538,351.38800000000015,348.64300000000014,0.0
53286.0,STARLINK-4165,PAYLOAD,2022-09-06 22:00:00,15.73166279,0.0002069,53.2165,183.6763,31.2609,180.4861,0.00026669,0.0003692,0.0,0 STARLINK-4165,1 53286U 22086AW  22249.91667824  .00036920  00000-0  26669-3 0  9996,2 53286  53.2165 183.6763 0002069  31.2609 180.4861 15.73166279  1309,6727.991,91.535,351.24800000000016,348.464,0.0
53286.0,STARLINK-4165,PAYLOAD,2022-09-07 04:00:00,15.73171396,0.0002281,53.2163,182.4408,29.3294,159.0944,0.00050431,0.00070671,0.0,0 STARLINK-4165,1 53286U 22086AW  22250.16667824  .00070671  00000-0  50431-3 0  9990,2 53286  53.2163 182.4408 0002281  29.3294 159.0944 15.73171396  7658,6727.977,91.535,351.376,348.307,0.0
53286.0,STARLINK-4165,PAYLOAD,2022-09-07 14:00:01,15.73227201,0.0001958,53.2161,180.3772,29.9961,359.5832,0.00020506,0.0002829,0.0,0 STARLINK-4165,1 53286U 22086AW  22250.58334491  .00028290  00000-0  20506-3 0  9997,2 53286  53.2161 180.3772 0001958  29.9961 359.5832 15.73227201  1300,6727.818,91.532,351.0,348.365,0.0
53286.0,STARLINK-4165,PAYLOAD,2022-09-07 22:00:00,15.73252645,0.0001834,53.2164,178.72799999999995,26.9784,91.5748,-0.00043347,-0.00061155,0.0,0 STARLINK-4165,1 53286U 22086AW  22250.91667824 -.00061155  00000-0 -43347-3 0  9990,2 53286  53.2164 178.7280 0001834  26.9784  91.5748 15.73252645  7777,6727.745,91.53,350.844,348.376,0.0
53286.0,STARLINK-4165,PAYLOAD,2022-09-08 14:00:01,15.73198121,0.0001794,53.2171,175.4288,19.219,277.2393,0.00046797,0.00065567,0.0,0 STARLINK-4165,1 53286U 22086AW  22251.58334491  .00065567  00000-0  46797-3 0  9996,2 53286  53.2171 175.4288 0001794  19.2190 277.2393 15.73198121  1308,6727.901,91.533,350.973,348.559,0.0
53286.0,STARLINK-4165,PAYLOAD,2022-09-08 22:00:00,15.73273406,0.0001858,53.2172,173.7797,23.2722,2.1442,-0.00059291,-0.00083279,0.0,0 STARLINK-4165,1 53286U 22086AW  22251.91667824 -.00083279  00000-0 -59291-3 0  9997,2 53286  53.2172 173.7797 0001858  23.2722   2.1442 15.73273406  1302,6727.686,91.529,350.801,348.301,0.0
